IRIDIUM 166             
1 43570U 18061B   24308.49523241  .00000590  00000+0  20349-3 0  9996
2 43570  86.3923 303.5883 0002430  85.0136 275.1338 14.34222323328732
IRIDIUM 158             
1 43571U 18061C   24308.53326735  .00000086  00000+0  23660-4 0  9991
2 43571  86.3926 303.5814 0002403  88.9928 271.1543 14.34217444328700
IRIDIUM 165             
1 43572U 18061D   24308.48887091  .00000094  00000+0  26561-4 0  9995
2 43572  86.3923 303.6356 0002186  88.8794 271.2652 14.34218002328723
IRIDIUM 155             
1 43573U 18061E   24308.52058407  .00000056  00000+0  12944-4 0  9990
2 43573  86.3917 303.5202 0002409  88.9895 271.1577 14.34217251328693
IRIDIUM 154             
1 43574U 18061F   24308.43178353  .00000219  00000+0  71196-4 0  9999
2 43574  86.3926 303.6621 0002092  91.5698 268.5737 14.34218894328736
IRIDIUM 163             
1 43575U 18061G   24308.48252311  .00000598  00000+0  20640-3 0  9999
2 43575  86.3923 303.5750 0002355  93.9740 266.1725 14.34221422328712
IRIDIUM 156             
1 43576U 18061H   24308.52692648  .00000016  00000+0 -12605-5 0  9996
2 43576  86.3919 303.5632 0002399  85.5704 274.5766 14.34217716328711
IRIDIUM 164             
1 43577U 18061J   24308.50789825  .00000007  00000+0 -46928-5 0  9994
2 43577  86.3922 303.6020 0002038  84.4357 275.7072 14.34217694328752
